{
  "links" : {
    "next" : "https://api.nasa.gov/neo/rest/v1/feed?start_date=2016-02-16&end_date=2016-02-16&detailed=true&api_key=t0TVs3DtDT2H8Oy2Zy8m2eVrNsAVKAexjcZXUckd",
    "prev" : "https://api.nasa.gov/neo/rest/v1/feed?start_date=2016-02-14&end_date=2016-02-14&detailed=true&api_key=t0TVs3DtDT2H8Oy2Zy8m2eVrNsAVKAexjcZXUckd",
    "self" : "https://api.nasa.gov/neo/rest/v1/feed?start_date=2016-02-15&end_date=2016-02-15&detailed=true&api_key=t0TVs3DtDT2H8Oy2Zy8m2eVrNsAVKAexjcZXUckd"
  },
  "element_count" : 6,
  "near_earth_objects" : {
    "2016-02-15" : [ {
      "links" : {
        "self" : "https://api.nasa.gov/neo/rest/v1/neo/3743899?api_key=t0TVs3DtDT2H8Oy2Zy8m2eVrNsAVKAexjcZXUckd"
      },
      "neo_reference_id" : "3743899",
      "name" : "(2016 CQ246)",
      "nasa_jpl_url" : "http://ssd.jpl.nasa.gov/sbdb.cgi?sstr=3743899",
      "absolute_magnitude_h" : 25.3,
      "estimated_diameter" : {
        "kilometers" : {
          "estimated_diameter_min" : 0.0231502122,
          "estimated_diameter_max" : 0.0517654482
        },
        "meters" : {
          "estimated_diameter_min" : 23.150212221,
          "estimated_diameter_max" : 51.7654482198
        },
        "miles" : {
          "estimated_diameter_min" : 0.0143848705,
          "estimated_diameter_max" : 0.0321655483
        },
        "feet" : {
          "estimated_diameter_min" : 75.9521422633,
          "estimated_diameter_max" : 169.8341531374
        }
      },
      "is_potentially_hazardous_asteroid" : false,
      "close_approach_data" : [ {
        "close_approach_date" : "2016-02-15",
        "epoch_date_close_approach" : 1455523200000,
        "relative_velocity" : {
          "kilometers_per_second" : "17.5417612264",
          "kilometers_per_hour" : "63150.3404150198",
          "miles_per_hour" : "39239.1656873216"
        },
        "miss_distance" : {
          "astronomical" : "0.0214577",
          "lunar" : "8.3470449448",
          "kilometers" : "3210026.25",
          "miles" : "1994617.875"
        },
        "orbiting_body" : "Earth"
      } ],
      "orbital_data" : {
        "orbit_id" : "4",
        "orbit_determination_date" : "2017-04-06 08:28:16",
        "orbit_uncertainty" : "7",
        "minimum_orbit_intersection" : ".0211557",
        "jupiter_tisserand_invariant" : "3.860",
        "epoch_osculation" : "2458000.5",
        "eccentricity" : ".6125416770628765",
        "semi_major_axis" : "1.769211492851437",
        "inclination" : "4.703303135918633",
        "ascending_node_longitude" : "340.8649677329514",
        "orbital_period" : "859.5438844509353",
        "perihelion_distance" : ".6854957179413023",
        "perihelion_argument" : "243.2564963383193",
        "aphelion_distance" : "2.852927267761571",
        "perihelion_time" : "2458339.744433699598",
        "mean_anomaly" : "217.9153451718536",
        "mean_motion" : ".4188267830326813",
        "equinox" : "J2000"
      }
    }, {
      "links" : {
        "self" : "https://api.nasa.gov/neo/rest/v1/neo/2141495?api_key=t0TVs3DtDT2H8Oy2Zy8m2eVrNsAVKAexjcZXUckd"
      },
      "neo_reference_id" : "2141495",
      "name" : "141495 (2002 EZ11)",
      "nasa_jpl_url" : "http://ssd.jpl.nasa.gov/sbdb.cgi?sstr=2141495",
      "absolute_magnitude_h" : 18.3,
      "estimated_diameter" : {
        "kilometers" : {
          "estimated_diameter_min" : 0.5815070396,
          "estimated_diameter_max" : 1.30028927
        },
        "meters" : {
          "estimated_diameter_min" : 581.5070396458,
          "estimated_diameter_max" : 1300.2892700427
        },
        "miles" : {
          "estimated_diameter_min" : 0.3613316107,
          "estimated_diameter_max" : 0.807962044
        },
        "feet" : {
          "estimated_diameter_min" : 1907.8315559515,
          "estimated_diameter_max" : 4266.0410487267
        }
      },
      "is_potentially_hazardous_asteroid" : true,
      "close_approach_data" : [ {
        "close_approach_date" : "2016-02-15",
        "epoch_date_close_approach" : 1455523200000,
        "relative_velocity" : {
          "kilometers_per_second" : "18.0177438131",
          "kilometers_per_hour" : "64863.8777272795",
          "miles_per_hour" : "40303.8911355977"
        },
        "miss_distance" : {
          "astronomical" : "0.4771225778",
          "lunar" : "185.6006774902",
          "kilometers" : "71376520",
          "miles" : "44351316"
        },
        "orbiting_body" : "Earth"
      } ],
      "orbital_data" : {
        "orbit_id" : "146",
        "orbit_determination_date" : "2017-04-06 09:27:33",
        "orbit_uncertainty" : "0",
        "minimum_orbit_intersection" : ".00101423",
        "jupiter_tisserand_invariant" : "5.222",
        "epoch_osculation" : "2458000.5",
        "eccentricity" : ".8022330048534745",
        "semi_major_axis" : "1.114258996424253",
        "inclination" : "2.353708175111729",
        "ascending_node_longitude" : "51.95353117191661",
        "orbital_period" : "429.61323361217",
        "perihelion_distance" : ".2203636535378076",
        "perihelion_argument" : "317.7033473651245",
        "aphelion_distance" : "2.008154339310698",
        "perihelion_time" : "2457790.867159530145",
        "mean_anomaly" : "175.6645667886384",
        "mean_motion" : ".8379630137859934",
        "equinox" : "J2000"
      }
    }, {
      "links" : {
        "self" : "https://api.nasa.gov/neo/rest/v1/neo/3363697?api_key=t0TVs3DtDT2H8Oy2Zy8m2eVrNsAVKAexjcZXUckd"
      },
      "neo_reference_id" : "3363697",
      "name" : "(2006 XP4)",
      "nasa_jpl_url" : "http://ssd.jpl.nasa.gov/sbdb.cgi?sstr=3363697",
      "absolute_magnitude_h" : 23.9,
      "estimated_diameter" : {
        "kilometers" : {
          "estimated_diameter_min" : 0.04411182,
          "estimated_diameter_max" : 0.0986370281
        },
        "meters" : {
          "estimated_diameter_min" : 44.1118199997,
          "estimated_diameter_max" : 98.6370281305
        },
        "miles" : {
          "estimated_diameter_min" : 0.0274098057,
          "estimated_diameter_max" : 0.0612901888
        },
        "feet" : {
          "estimated_diameter_min" : 144.7238235278,
          "estimated_diameter_max" : 323.6123073718
        }
      },
      "is_potentially_hazardous_asteroid" : false,
      "close_approach_data" : [ {
        "close_approach_date" : "2016-02-15",
        "epoch_date_close_approach" : 1455523200000,
        "relative_velocity" : {
          "kilometers_per_second" : "7.7757189554",
          "kilometers_per_hour" : "27992.5882395707",
          "miles_per_hour" : "17393.5057314155"
        },
        "miss_distance" : {
          "astronomical" : "0.0640163464",
          "lunar" : "24.9023609161",
          "kilometers" : "9576710",
          "miles" : "5950691.5"
        },
        "orbiting_body" : "Earth"
      } ],
      "orbital_data" : {
        "orbit_id" : "29",
        "orbit_determination_date" : "2017-04-06 09:07:21",
        "orbit_uncertainty" : "0",
        "minimum_orbit_intersection" : ".00422625",
        "jupiter_tisserand_invariant" : "6.762",
        "epoch_osculation" : "2458000.5",
        "eccentricity" : ".2147618645080877",
        "semi_major_axis" : ".872678146571169",
        "inclination" : ".5128147726831948",
        "ascending_node_longitude" : "295.0422151854324",
        "orbital_period" : "297.7690653526021",
        "perihelion_distance" : ".6852601606980825",
        "perihelion_argument" : "345.1071886134371",
        "aphelion_distance" : "1.060096132444256",
        "perihelion_time" : "2458120.359373961013",
        "mean_anomaly" : "215.0911439545623",
        "mean_motion" : "1.208990596701868",
        "equinox" : "J2000"
      }
    } ]
  }
}